{"type": "FeatureCollection", "features": [ {"type": "Feature", "properties": {"norad_id": 43648, "name": "BEIDOU-3 M15 (C34)", "group": "gnss", "lat": -26.07637230651667, "lon": 146.64683696815823, "alt_km": 21542.385964772275, "timestamp": "2025-12-26T13:39:19.217932+00:00", "meta": {"OBJECT_NAME": "BEIDOU-3 M15 (C34)", "OBJECT_ID": "2018-078B", "EPOCH": "2025-12-25T17:09:11.649024", "MEAN_MOTION": 1.86232344, "ECCENTRICITY": 0.00040789, "INCLINATION": 54.2458, "RA_OF_ASC_NODE": 306.069, "ARG_OF_PERICENTER": 19.7485, "MEAN_ANOMALY": 340.2771, "EPHEMERIS_TYPE": 0, "CLASSIFICATION_TYPE": "U", "NORAD_CAT_ID": 43648, "ELEMENT_SET_NO": 999, "REV_AT_EPOCH": 4894, "BSTAR": 0, "MEAN_MOTION_DOT": -5.4e-07, "MEAN_MOTION_DDOT": 0}, "tle": {"line1": "1 43648U 18078B   25359.71471816 -.00000054  00000+0  00000+0 0  9996", "line2": "2 43648  54.2458 306.0690 0004078  19.7485 340.2771  1.86232344 48944"}}, "geometry": {"type": "Point", "coordinates": [146.64683696815823, -26.07637230651667]}}, {"type": "Feature", "properties": {"norad_id": 43683, "name": "BEIDOU-3 G1 (C59)", "group": "gnss", "lat": -0.9914168606152733, "lon": 80.06202619831168, "alt_km": 35786.419447654116, "timestamp": "2025-12-26T13:39:19.217946+00:00", "meta": {"OBJECT_NAME": "BEIDOU-3 G1 (C59)", "OBJECT_ID": "2018-085A", "EPOCH": "2025-12-26T05:08:26.429856", "MEAN_MOTION": 1.0026556, "ECCENTRICITY": 0.0001266, "INCLINATION": 2.6395, "RA_OF_ASC_NODE": 102.5209, "ARG_OF_PERICENTER": 50.4767, "MEAN_ANOMALY": 159.0004, "EPHEMERIS_TYPE": 0, "CLASSIFICATION_TYPE": "U", "NORAD_CAT_ID": 43683, "ELEMENT_SET_NO": 999, "REV_AT_EPOCH": 2632, "BSTAR": 0, "MEAN_MOTION_DOT": -2.58e-06, "MEAN_MOTION_DDOT": 0}, "tle": {"line1": "1 43683U 18085A   25360.21419479 -.00000258  00000+0  00000+0 0  9993", "line2": "2 43683   2.6395 102.5209 0001266  50.4767 159.0004  1.00265560 26321"}}, "geometry": {"type": "Point", "coordinates": [80.06202619831168, -0.9914168606152733]}}, {"type": "Feature", "properties": {"norad_id": 43687, "name": "COSMOS 2529 (757)", "group": "gnss", "lat": 49.49574440845559, "lon": -127.2312225312205, "alt_km": 19141.14962539347, "timestamp": "2025-12-26T13:39:19.217958+00:00", "meta": {"OBJECT_NAME": "COSMOS 2529 (757)", "OBJECT_ID": "2018-086A", "EPOCH": "2025-12-23T05:01:04.327104", "MEAN_MOTION": 2.13102131, "ECCENTRICITY": 0.0006897, "INCLINATION": 64.2927, "RA_OF_ASC_NODE": 198.5346, "ARG_OF_PERICENTER": 253.659, "MEAN_ANOMALY": 106.3281, "EPHEMERIS_TYPE": 0, "CLASSIFICATION_TYPE": "U", "NORAD_CAT_ID": 43687, "ELEMENT_SET_NO": 999, "REV_AT_EPOCH": 5553, "BSTAR": 0, "MEAN_MOTION_DOT": 9.5e-07, "MEAN_MOTION_DDOT": 0}, "tle": {"line1": "1 43687U 18086A   25357.20907786  .00000095  00000+0  00000+0 0  9994", "line2": "2 43687  64.2927 198.5346 0006897 253.6590 106.3281  2.13102131 55539"}}, "geometry": {"type": "Point", "coordinates": [-127.2312225312205, 49.49574440845559]}}, {"type": "Feature", "properties": {"norad_id": 43706, "name": "BEIDOU-3 M17 (C36)", "group": "gnss", "lat": 51.05627920764381, "lon": -55.25082336912142, "alt_km": 21537.941413020522, "timestamp": "2025-12-26T13:39:19.217980+00:00", "meta": {"OBJECT_NAME": "BEIDOU-3 M17 (C36)", "OBJECT_ID": "2018-093A", "EPOCH": "2025-12-26T03:36:39.806208", "MEAN_MOTION": 1.86228273, "ECCENTRICITY": 0.00059945, "INCLINATION": 54.1735, "RA_OF_ASC_NODE": 188.1665, "ARG_OF_PERICENTER": 306.9478, "MEAN_ANOMALY": 238.7851, "EPHEMERIS_TYPE": 0, "CLASSIFICATION_TYPE": "U", "NORAD_CAT_ID": 43706, "ELEMENT_SET_NO": 999, "REV_AT_EPOCH": 4831, "BSTAR": 0, "MEAN_MOTION_DOT": 1.19e-06, "MEAN_MOTION_DDOT": 0}, "tle": {"line1": "1 43706U 18093A   25360.15046072  .00000119  00000+0  00000+0 0  9991", "line2": "2 43706  54.1735 188.1665 0005994 306.9478 238.7851  1.86228273 48315"}}, "geometry": {"type": "Point", "coordinates": [-55.25082336912142, 51.05627920764381]}}, {"type": "Feature", "properties": {"norad_id": 43707, "name": "BEIDOU-3 M18 (C37)", "group": "gnss", "lat": -15.385728521033684, "lon": 19.616518063554032, "alt_km": 21546.22640468953, "timestamp": "2025-12-26T13:39:19.217994+00:00", "meta": {"OBJECT_NAME": "BEIDOU-3 M18 (C37)", "OBJECT_ID": "2018-093B", "EPOCH": "2025-12-23T01:12:21.238848", "MEAN_MOTION": 1.86226616, "ECCENTRICITY": 0.0006147, "INCLINATION": 54.1741, "RA_OF_ASC_NODE": 188.2636, "ARG_OF_PERICENTER": 354.1254, "MEAN_ANOMALY": 5.9078, "EPHEMERIS_TYPE": 0, "CLASSIFICATION_TYPE": "U", "NORAD_CAT_ID": 43707, "ELEMENT_SET_NO": 999, "REV_AT_EPOCH": 4825, "BSTAR": 0, "MEAN_MOTION_DOT": 9.6e-07, "MEAN_MOTION_DDOT": 0}, "tle": {"line1": "1 43707U 18093B   25357.05024582  .00000096  00000+0  00000+0 0  9993", "line2": "2 43707  54.1741 188.2636 0006147 354.1254   5.9078  1.86226616 48257"}}, "geometry": {"type": "Point", "coordinates": [19.616518063554032, -15.385728521033684]}}, {"type": "Feature", "properties": {"norad_id": 43873, "name": "GPS BIII-1  (PRN 04)", "group": "gnss", "lat": 37.88715137427315, "lon": 131.20909125919925, "alt_km": 20262.655888773323, "timestamp": "2025-12-26T13:39:19.218007+00:00", "meta": {"OBJECT_NAME": "GPS BIII-1  (PRN 04)", "OBJECT_ID": "2018-109A", "EPOCH": "2025-12-24T12:17:00.757248", "MEAN_MOTION": 2.00553945, "ECCENTRICITY": 0.00376159, "INCLINATION": 55.5731, "RA_OF_ASC_NODE": 99.0827, "ARG_OF_PERICENTER": 195.5593, "MEAN_ANOMALY": 167.4766, "EPHEMERIS_TYPE": 0, "CLASSIFICATION_TYPE": "U", "NORAD_CAT_ID": 43873, "ELEMENT_SET_NO": 999, "REV_AT_EPOCH": 5157, "BSTAR": 0, "MEAN_MOTION_DOT": 1.7e-07, "MEAN_MOTION_DDOT": 0}, "tle": {"line1": "1 43873U 18109A   25358.51181432  .00000017  00000+0  00000+0 0  9998", "line2": "2 43873  55.5731  99.0827 0037615 195.5593 167.4766  2.00553945 51575"}}, "geometry": {"type": "Point", "coordinates": [131.20909125919925, 37.88715137427315]}}, {"type": "Feature", "properties": {"norad_id": 44231, "name": "BEIDOU-2 G8 (C01)", "group": "gnss", "lat": 0.31224361114969534, "lon": 84.74384045029866, "alt_km": 35798.08803078438, "timestamp": "2025-12-26T13:39:19.218021+00:00", "meta": {"OBJECT_NAME": "BEIDOU-2 G8 (C01)", "OBJECT_ID": "2019-027A", "EPOCH": "2025-12-26T04:27:38.588256", "MEAN_MOTION": 1.00274017, "ECCENTRICITY": 0.00083192, "INCLINATION": 1.6938, "RA_OF_ASC_NODE": 74.741, "ARG_OF_PERICENTER": 259.007, "MEAN_ANOMALY": 332.6181, "EPHEMERIS_TYPE": 0, "CLASSIFICATION_TYPE": "U", "NORAD_CAT_ID": 44231, "ELEMENT_SET_NO": 999, "REV_AT_EPOCH": 2434, "BSTAR": 0, "MEAN_MOTION_DOT": -2.25e-06, "MEAN_MOTION_DDOT": 0}, "tle": {"line1": "1 44231U 19027A   25360.18586329 -.00000225  00000+0  00000+0 0  9999", "line2": "2 44231   1.6938  74.7410 0008319 259.0070 332.6181  1.00274017 24349"}}, "geometry": {"type": "Point", "coordinates": [84.74384045029866, 0.31224361114969534]}}, {"type": "Feature", "properties": {"norad_id": 44299, "name": "COSMOS 2534 (758)", "group": "gnss", "lat": -10.729318493324305, "lon": 23.652304746705703, "alt_km": 19132.508075500387, "timestamp": "2025-12-26T13:39:19.218033+00:00", "meta": {"OBJECT_NAME": "COSMOS 2534 (758)", "OBJECT_ID": "2019-030A", "EPOCH": "2025-12-26T02:10:04.232064", "MEAN_MOTION": 2.13102148, "ECCENTRICITY": 0.00086162, "INCLINATION": 64.3664, "RA_OF_ASC_NODE": 198.4428, "ARG_OF_PERICENTER": 283.8414, "MEAN_ANOMALY": 260.9701, "EPHEMERIS_TYPE": 0, "CLASSIFICATION_TYPE": "U", "NORAD_CAT_ID": 44299, "ELEMENT_SET_NO": 999, "REV_AT_EPOCH": 5123, "BSTAR": 0, "MEAN_MOTION_DOT": 1.1e-06, "MEAN_MOTION_DDOT": 0}, "tle": {"line1": "1 44299U 19030A   25360.09032676  .00000110  00000+0  00000+0 0  9990", "line2": "2 44299  64.3664 198.4428 0008616 283.8414 260.9701  2.13102148 51234"}}, "geometry": {"type": "Point", "coordinates": [23.652304746705703, -10.729318493324305]}}, {"type": "Feature", "properties": {"norad_id": 44337, "name": "BEIDOU-3 IGSO-2 (C39)", "group": "gnss", "lat": -53.82995677383271, "lon": 52.32875823586133, "alt_km": 35706.30413219984, "timestamp": "2025-12-26T13:39:19.218044+00:00", "meta": {"OBJECT_NAME": "BEIDOU-3 IGSO-2 (C39)", "OBJECT_ID": "2019-035A", "EPOCH": "2025-12-25T18:13:52.363776", "MEAN_MOTION": 1.00267205, "ECCENTRICITY": 0.00378775, "INCLINATION": 55.2292, "RA_OF_ASC_NODE": 160.387, "ARG_OF_PERICENTER": 202.6493, "MEAN_ANOMALY": 124.2453, "EPHEMERIS_TYPE": 0, "CLASSIFICATION_TYPE": "U", "NORAD_CAT_ID": 44337, "ELEMENT_SET_NO": 999, "REV_AT_EPOCH": 2392, "BSTAR": 0, "MEAN_MOTION_DOT": -6.4e-07, "MEAN_MOTION_DDOT": 0}, "tle": {"line1": "1 44337U 19035A   25359.75963384 -.00000064  00000+0  00000+0 0  9997", "line2": "2 44337  55.2292 160.3870 0037877 202.6493 124.2453  1.00267205 23921"}}, "geometry": {"type": "Point", "coordinates": [52.32875823586133, -53.82995677383271]}}, {"type": "Feature", "properties": {"norad_id": 44506, "name": "GPS BIII-2  (PRN 18)", "group": "gnss", "lat": -41.60071523503305, "lon": -59.27054201042667, "alt_km": 20233.079642281038, "timestamp": "2025-12-26T13:39:19.218057+00:00", "meta": {"OBJECT_NAME": "GPS BIII-2  (PRN 18)", "OBJECT_ID": "2019-056A", "EPOCH": "2025-12-26T04:52:46.864416", "MEAN_MOTION": 2.00566478, "ECCENTRICITY": 0.00577783, "INCLINATION": 55.7164, "RA_OF_ASC_NODE": 338.0189, "ARG_OF_PERICENTER": 198.675, "MEAN_ANOMALY": 203.194, "EPHEMERIS_TYPE": 0, "CLASSIFICATION_TYPE": "U", "NORAD_CAT_ID": 44506, "ELEMENT_SET_NO": 999, "REV_AT_EPOCH": 4660, "BSTAR": 0, "MEAN_MOTION_DOT": -5.8e-07, "MEAN_MOTION_DDOT": 0}, "tle": {"line1": "1 44506U 19056A   25360.20332019 -.00000058  00000+0  00000+0 0  9998", "line2": "2 44506  55.7164 338.0189 0057778 198.6750 203.1940  2.00566478 46604"}}, "geometry": {"type": "Point", "coordinates": [-59.27054201042667, -41.60071523503305]}}]}